{
  "type": "FeatureCollection",
  "features": [
    {
      "type": "Feature",
      "properties": {
        "norad_id": 34314,
        "name": "COSMOS 2251 DEB",
        "group": "cosmos-2251-debris",
        "lat": 46.728160580881095,
        "lon": 107.54260625248291,
        "alt_km": 816.1930747723491,
        "timestamp": "2025-12-14T11:29:50.454313+00:00",
        "meta_object_name": "COSMOS 2251 DEB",
        "meta_object_id": "1993-036NL",
        "meta_epoch": "2025-12-13T15:23:49.809408",
        "meta_mean_motion": 14.17426968,
        "meta_eccentricity": 0.01028246,
        "meta_inclination": 74.0062,
        "meta_ra_of_asc_node": 306.774,
        "meta_arg_of_pericenter": 52.1954,
        "meta_mean_anomaly": 125.4361,
        "meta_ephemeris_type": 0,
        "meta_classification_type": "U",
        "meta_norad_cat_id": 34314,
        "meta_element_set_no": 999,
        "meta_rev_at_epoch": 86670,
        "meta_bstar": 0.00072444733,
        "meta_mean_motion_dot": 1.521e-05,
        "meta_mean_motion_ddot": 0,
        "tle_line1": "1 34314U 93036NL  25347.64154872  .00001521  00000+0  72445-3 0  9997",
        "tle_line2": "2 34314  74.0062 306.7740 0102824  52.1954 125.4361 14.17426968866703"
      },
      "geometry": {
        "type": "Point",
        "coordinates": [
          107.54260625248291,
          46.728160580881095
        ]
      }
    },
    {
      "type": "Feature",
      "properties": {
        "norad_id": 34316,
        "name": "COSMOS 2251 DEB",
        "group": "cosmos-2251-debris",
        "lat": 61.95802296155092,
        "lon": 5.844386597862386,
        "alt_km": 579.8842286155577,
        "timestamp": "2025-12-14T11:29:50.454323+00:00",
        "meta_object_name": "COSMOS 2251 DEB",
        "meta_object_id": "1993-036NN",
        "meta_epoch": "2025-12-13T01:24:10.944000",
        "meta_mean_motion": 14.91846107,
        "meta_eccentricity": 0.00083129,
        "meta_inclination": 74.0651,
        "meta_ra_of_asc_node": 336.2503,
        "meta_arg_of_pericenter": 60.3367,
        "meta_mean_anomaly": 299.8643,
        "meta_ephemeris_type": 0,
        "meta_classification_type": "U",
        "meta_norad_cat_id": 34316,
        "meta_element_set_no": 999,
        "meta_rev_at_epoch": 89214,
        "meta_bstar": 0.0022560474,
        "meta_mean_motion_dot": 0.0002284,
        "meta_mean_motion_ddot": 0,
        "tle_line1": "1 34316U 93036NN  25347.05846000  .00022840  00000+0  22560-2 0  9994",
        "tle_line2": "2 34316  74.0651 336.2503 0008312  60.3367 299.8643 14.91846107892149"
      },
      "geometry": {
        "type": "Point",
        "coordinates": [
          5.844386597862386,
          61.95802296155092
        ]
      }
    },
    {
      "type": "Feature",
      "properties": {
        "norad_id": 34317,
        "name": "COSMOS 2251 DEB",
        "group": "cosmos-2251-debris",
        "lat": 69.1948028079658,
        "lon": 163.53173920763072,
        "alt_km": 965.2326526252336,
        "timestamp": "2025-12-14T11:29:50.454333+00:00",
        "meta_object_name": "COSMOS 2251 DEB",
        "meta_object_id": "1993-036NP",
        "meta_epoch": "2025-12-13T12:28:19.156224",
        "meta_mean_motion": 13.65122716,
        "meta_eccentricity": 0.03365384,
        "meta_inclination": 73.9247,
        "meta_ra_of_asc_node": 34.4743,
        "meta_arg_of_pericenter": 23.5834,
        "meta_mean_anomaly": 42.8611,
        "meta_ephemeris_type": 0,
        "meta_classification_type": "U",
        "meta_norad_cat_id": 34317,
        "meta_element_set_no": 999,
        "meta_rev_at_epoch": 83630,
        "meta_bstar": 0.00053173727,
        "meta_mean_motion_dot": 6.13e-06,
        "meta_mean_motion_ddot": 0,
        "tle_line1": "1 34317U 93036NP  25347.51966616  .00000613  00000+0  53174-3 0  9992",
        "tle_line2": "2 34317  73.9247  34.4743 0336538  23.5834  42.8611 13.65122716836306"
      },
      "geometry": {
        "type": "Point",
        "coordinates": [
          163.53173920763072,
          69.1948028079658
        ]
      }
    },
    {
      "type": "Feature",
      "properties": {
        "norad_id": 34321,
        "name": "COSMOS 2251 DEB",
        "group": "cosmos-2251-debris",
        "lat": -43.46603265533478,
        "lon": 137.34301247807105,
        "alt_km": 722.1874572632614,
        "timestamp": "2025-12-14T11:29:50.454343+00:00",
        "meta_object_name": "COSMOS 2251 DEB",
        "meta_object_id": "1993-036NT",
        "meta_epoch": "2025-12-13T12:49:21.131040",
        "meta_mean_motion": 14.50060851,
        "meta_eccentricity": 0.0015851,
        "meta_inclination": 74.028,
        "meta_ra_of_asc_node": 154.8689,
        "meta_arg_of_pericenter": 284.3965,
        "meta_mean_anomaly": 139.9232,
        "meta_ephemeris_type": 0,
        "meta_classification_type": "U",
        "meta_norad_cat_id": 34321,
        "meta_element_set_no": 999,
        "meta_rev_at_epoch": 88498,
        "meta_bstar": 0.00077647802,
        "meta_mean_motion_dot": 2.989e-05,
        "meta_mean_motion_ddot": 0,
        "tle_line1": "1 34321U 93036NT  25347.53427235  .00002989  00000+0  77648-3 0  9998",
        "tle_line2": "2 34321  74.0280 154.8689 0015851 284.3965 139.9232 14.50060851884980"
      },
      "geometry": {
        "type": "Point",
        "coordinates": [
          137.34301247807105,
          -43.46603265533478
        ]
      }
    },
    {
      "type": "Feature",
      "properties": {
        "norad_id": 34323,
        "name": "COSMOS 2251 DEB",
        "group": "cosmos-2251-debris",
        "lat": 54.50684973664907,
        "lon": -84.10439587835408,
        "alt_km": 609.9603569795408,
        "timestamp": "2025-12-14T11:29:50.454353+00:00",
        "meta_object_name": "COSMOS 2251 DEB",
        "meta_object_id": "1993-036NV",
        "meta_epoch": "2025-12-13T12:30:04.889952",
        "meta_mean_motion": 14.74478602,
        "meta_eccentricity": 0.00589305,
        "meta_inclination": 73.9525,
        "meta_ra_of_asc_node": 121.5809,
        "meta_arg_of_pericenter": 165.4987,
        "meta_mean_anomaly": 272.9235,
        "meta_ephemeris_type": 0,
        "meta_classification_type": "U",
        "meta_norad_cat_id": 34323,
        "meta_element_set_no": 999,
        "meta_rev_at_epoch": 88451,
        "meta_bstar": 0.0041591843,
        "meta_mean_motion_dot": 0.00028514,
        "meta_mean_motion_ddot": 0,
        "tle_line1": "1 34323U 93036NV  25347.52088993  .00028514  00000+0  41592-2 0  9993",
        "tle_line2": "2 34323  73.9525 121.5809 0058930 165.4987 272.9235 14.74478602884518"
      },
      "geometry": {
        "type": "Point",
        "coordinates": [
          -84.10439587835408,
          54.50684973664907
        ]
      }
    },
    {
      "type": "Feature",
      "properties": {
        "norad_id": 34325,
        "name": "COSMOS 2251 DEB",
        "group": "cosmos-2251-debris",
        "lat": -71.70141242669735,
        "lon": 70.7896546076282,
        "alt_km": 802.5537378293056,
        "timestamp": "2025-12-14T11:29:50.454363+00:00",
        "meta_object_name": "COSMOS 2251 DEB",
        "meta_object_id": "1993-036NX",
        "meta_epoch": "2025-12-13T15:47:49.341408",
        "meta_mean_motion": 14.04480347,
        "meta_eccentricity": 0.01921405,
        "meta_inclination": 73.8713,
        "meta_ra_of_asc_node": 191.1887,
        "meta_arg_of_pericenter": 208.3159,
        "meta_mean_anomaly": 222.4323,
        "meta_ephemeris_type": 0,
        "meta_classification_type": "U",
        "meta_norad_cat_id": 34325,
        "meta_element_set_no": 999,
        "meta_rev_at_epoch": 85528,
        "meta_bstar": 0.0021581805,
        "meta_mean_motion_dot": 4.034e-05,
        "meta_mean_motion_ddot": 0,
        "tle_line1": "1 34325U 93036NX  25347.65820997  .00004034  00000+0  21582-2 0  9995",
        "tle_line2": "2 34325  73.8713 191.1887 0192140 208.3159 222.4323 14.04480347855289"
      },
      "geometry": {
        "type": "Point",
        "coordinates": [
          70.7896546076282,
          -71.70141242669735
        ]
      }
    },
    {
      "type": "Feature",
      "properties": {
        "norad_id": 34327,
        "name": "COSMOS 2251 DEB",
        "group": "cosmos-2251-debris",
        "lat": -60.159796597667714,
        "lon": 18.426603110860174,
        "alt_km": 610.9946752514888,
        "timestamp": "2025-12-14T11:29:50.454373+00:00",
        "meta_object_name": "COSMOS 2251 DEB",
        "meta_object_id": "1993-036NZ",
        "meta_epoch": "2025-12-13T15:21:54.486144",
        "meta_mean_motion": 14.89211661,
        "meta_eccentricity": 0.00328534,
        "meta_inclination": 73.994,
        "meta_ra_of_asc_node": 170.0795,
        "meta_arg_of_pericenter": 346.2381,
        "meta_mean_anomaly": 83.2477,
        "meta_ephemeris_type": 0,
        "meta_classification_type": "U",
        "meta_norad_cat_id": 34327,
        "meta_element_set_no": 999,
        "meta_rev_at_epoch": 89521,
        "meta_bstar": 0.0014340396,
        "meta_mean_motion_dot": 0.0001369,
        "meta_mean_motion_ddot": 0,
        "tle_line1": "1 34327U 93036NZ  25347.64021396  .00013690  00000+0  14340-2 0  9994",
        "tle_line2": "2 34327  73.9940 170.0795 0032853 346.2381  83.2477 14.89211661895215"
      },
      "geometry": {
        "type": "Point",
        "coordinates": [
          18.426603110860174,
          -60.159796597667714
        ]
      }
    }
  ]
}